start=new Date('2021-10-26T00:00:00.000Z').valueOf();
sats=[{"INCLINATION":"53.0529","TLE_LINE1":"1 48431U 21040D   21298.58335648 -.00018025  00000-0 -11938-2 0  9993","OBJECT_TYPE":"PAYLOAD","MEAN_ANOMALY":"31.1637","NORAD_CAT_ID":"48431","REF_FRAME":"TEME","PERIAPSIS":"545.861","CLASSIFICATION_TYPE":"U","MEAN_MOTION_DDOT":"0.0000000000000","LAUNCH_DATE":"2021-05-09","TIME_SYSTEM":"UTC","MEAN_MOTION":"15.06411998","PERIOD":"95.591","ECCENTRICITY":"0.00019000","REV_AT_EPOCH":"2692","GP_ID":"188120848","BSTAR":"-0.00119380000000","EPOCH":"2021-10-25T14:00:01.999872","CENTER_NAME":"EARTH","RA_OF_ASC_NODE":"116.8043","OBJECT_ID":"2021-040D","MEAN_MOTION_DOT":"-0.00018025","RCS_SIZE":"LARGE","MEAN_ELEMENT_THEORY":"SGP4","ARG_OF_PERICENTER":"70.3415","ELEMENT_SET_NO":"999","FILE":"3183355","TLE_LINE2":"2 48431  53.0529 116.8043 0001900  70.3415  31.1637 15.06411998 26923","COUNTRY_CODE":"US","OBJECT_NAME":"STARLINK-2700","SEMIMAJOR_AXIS":"6925.312","SITE":"AFETR","DECAY_DATE":null,"APOAPSIS":"548.493","EPHEMERIS_TYPE":"0"},{"EPOCH":"2021-10-25T14:00:01.999872","CENTER_NAME":"EARTH","RA_OF_ASC_NODE":"111.8047","OBJECT_ID":"2021-040E","OBJECT_TYPE":"PAYLOAD","MEAN_ANOMALY":"334.5056","NORAD_CAT_ID":"48432","TLE_LINE1":"1 48432U 21040E   21298.58335648 -.00063530  00000-0 -42801-2 0  9998","INCLINATION":"53.0546","LAUNCH_DATE":"2021-05-09","TIME_SYSTEM":"UTC","MEAN_MOTION_DDOT":"0.0000000000000","CLASSIFICATION_TYPE":"U","PERIAPSIS":"546.116","REF_FRAME":"TEME","ECCENTRICITY":"0.00014220","MEAN_MOTION":"15.06436903","PERIOD":"95.590","BSTAR":"-0.00428010000000","GP_ID":"188120384","REV_AT_EPOCH":"2715","FILE":"3183351","SEMIMAJOR_AXIS":"6925.235","OBJECT_NAME":"STARLINK-2680","COUNTRY_CODE":"US","TLE_LINE2":"2 48432  53.0546 111.8047 0001422  74.5337 334.5056 15.06436903 27154","DECAY_DATE":null,"SITE":"AFETR","APOAPSIS":"548.085","EPHEMERIS_TYPE":"0","ARG_OF_PERICENTER":"74.5337","MEAN_ELEMENT_THEORY":"SGP4","RCS_SIZE":"LARGE","MEAN_MOTION_DOT":"-0.00063530","ELEMENT_SET_NO":"999"},{"ARG_OF_PERICENTER":"68.4515","MEAN_MOTION_DOT":"-0.00017528","RCS_SIZE":"LARGE","MEAN_ELEMENT_THEORY":"SGP4","ELEMENT_SET_NO":"999","DECAY_DATE":null,"SITE":"AFETR","APOAPSIS":"548.610","EPHEMERIS_TYPE":"0","FILE":"3183351","SEMIMAJOR_AXIS":"6925.321","OBJECT_NAME":"STARLINK-2699","COUNTRY_CODE":"US","TLE_LINE2":"2 48433  53.0519 116.8134 0002056  68.4515 212.9953 15.06409033 27082","ECCENTRICITY":"0.00020560","PERIOD":"95.592","MEAN_MOTION":"15.06409033","BSTAR":"-0.00116040000000","GP_ID":"188120892","REV_AT_EPOCH":"2708","OBJECT_TYPE":"PAYLOAD","NORAD_CAT_ID":"48433","MEAN_ANOMALY":"212.9953","TLE_LINE1":"1 48433U 21040F   21298.58335648 -.00017528  00000-0 -11604-2 0  9992","INCLINATION":"53.0519","LAUNCH_DATE":"2021-05-09","TIME_SYSTEM":"UTC","MEAN_MOTION_DDOT":"0.0000000000000","CLASSIFICATION_TYPE":"U","PERIAPSIS":"545.762","REF_FRAME":"TEME","CENTER_NAME":"EARTH","OBJECT_ID":"2021-040F","RA_OF_ASC_NODE":"116.8134","EPOCH":"2021-10-25T14:00:01.999872"},{"RA_OF_ASC_NODE":"121.7664","OBJECT_ID":"2021-040G","CENTER_NAME":"EARTH","EPOCH":"2021-10-25T14:00:01.999872","GP_ID":"188120418","BSTAR":"-0.00079474000000","REV_AT_EPOCH":"2686","ECCENTRICITY":"0.00019430","PERIOD":"95.591","MEAN_MOTION":"15.06416334","CLASSIFICATION_TYPE":"U","TIME_SYSTEM":"UTC","LAUNCH_DATE":"2021-05-09","MEAN_MOTION_DDOT":"0.0000000000000","REF_FRAME":"TEME","PERIAPSIS":"545.818","MEAN_ANOMALY":"158.3430","OBJECT_TYPE":"PAYLOAD","NORAD_CAT_ID":"48434","INCLINATION":"53.0629","TLE_LINE1":"1 48434U 21040G   21298.58335648 -.00012105  00000-0 -79474-3 0  9999","APOAPSIS":"548.509","EPHEMERIS_TYPE":"0","DECAY_DATE":null,"SITE":"AFETR","OBJECT_NAME":"STARLINK-2692","SEMIMAJOR_AXIS":"6925.298","TLE_LINE2":"2 48434  53.0629 121.7664 0001943  75.6132 158.3430 15.06416334 26867","COUNTRY_CODE":"US","FILE":"3183352","ELEMENT_SET_NO":"999","ARG_OF_PERICENTER":"75.6132","MEAN_MOTION_DOT":"-0.00012105","RCS_SIZE":"LARGE","MEAN_ELEMENT_THEORY":"SGP4"},{"APOAPSIS":"553.583","EPHEMERIS_TYPE":"0","DECAY_DATE":null,"SITE":"AFETR","SEMIMAJOR_AXIS":"6930.368","OBJECT_NAME":"STARLINK-2633","COUNTRY_CODE":"US","TLE_LINE2":"2 48435  53.0543 131.6652 0001948  85.4077 274.7133 15.04763737 26236","FILE":"3183453","ELEMENT_SET_NO":"999","ARG_OF_PERICENTER":"85.4077","RCS_SIZE":"LARGE","MEAN_MOTION_DOT":"-0.00001074","MEAN_ELEMENT_THEORY":"SGP4","OBJECT_ID":"2021-040H","RA_OF_ASC_NODE":"131.6652","CENTER_NAME":"EARTH","EPOCH":"2021-10-25T05:34:16.038048","BSTAR":"-0.00005587500000","GP_ID":"188145173","REV_AT_EPOCH":"2623","ECCENTRICITY":"0.00019480","MEAN_MOTION":"15.04763737","PERIOD":"95.696","LAUNCH_DATE":"2021-05-09","MEAN_MOTION_DDOT":"0.0000000000000","TIME_SYSTEM":"UTC","CLASSIFICATION_TYPE":"U","PERIAPSIS":"550.883","REF_FRAME":"TEME","OBJECT_TYPE":"PAYLOAD","MEAN_ANOMALY":"274.7133","NORAD_CAT_ID":"48435","TLE_LINE1":"1 48435U 21040H   21298.23213007 -.00001074  00000-0 -55875-4 0  9999","INCLINATION":"53.0543"},{"ARG_OF_PERICENTER":"75.9102","MEAN_MOTION_DOT":"0.00000725","RCS_SIZE":"LARGE","MEAN_ELEMENT_THEORY":"SGP4","ELEMENT_SET_NO":"999","DECAY_DATE":null,"SITE":"AFETR","APOAPSIS":"548.451","EPHEMERIS_TYPE":"0","FILE":"3183453","OBJECT_NAME":"STARLINK-2639","SEMIMAJOR_AXIS":"6925.367","TLE_LINE2":"2 48436  53.0537 148.8906 0001760  75.9102 284.2083 15.06394063 25982","COUNTRY_CODE":"US","ECCENTRICITY":"0.00017600","MEAN_MOTION":"15.06394063","PERIOD":"95.593","GP_ID":"188145395","BSTAR":"0.00006758500000","REV_AT_EPOCH":"2598","MEAN_ANOMALY":"284.2083","OBJECT_TYPE":"PAYLOAD","NORAD_CAT_ID":"48436","INCLINATION":"53.0537","TLE_LINE1":"1 48436U 21040J   21298.12055851  .00000725  00000-0  67585-4 0  9990","CLASSIFICATION_TYPE":"U","LAUNCH_DATE":"2021-05-09","MEAN_MOTION_DDOT":"0.0000000000000","TIME_SYSTEM":"UTC","REF_FRAME":"TEME","PERIAPSIS":"546.013","CENTER_NAME":"EARTH","RA_OF_ASC_NODE":"148.8906","OBJECT_ID":"2021-040J","EPOCH":"2021-10-25T02:53:36.255264"},{"EPOCH":"2021-10-25T03:17:21.825888","CENTER_NAME":"EARTH","RA_OF_ASC_NODE":"158.7413","OBJECT_ID":"2021-040K","TLE_LINE1":"1 48437U 21040K   21298.13705817  .00000965  00000-0  87162-4 0  9995","INCLINATION":"53.0545","OBJECT_TYPE":"PAYLOAD","NORAD_CAT_ID":"48437","MEAN_ANOMALY":"286.8971","PERIAPSIS":"550.729","REF_FRAME":"TEME","LAUNCH_DATE":"2021-05-09","MEAN_MOTION_DDOT":"0.0000000000000","TIME_SYSTEM":"UTC","CLASSIFICATION_TYPE":"U","MEAN_MOTION":"15.04757761","PERIOD":"95.696","ECCENTRICITY":"0.00021960","REV_AT_EPOCH":"2585","BSTAR":"0.00008716200000","GP_ID":"188145284","FILE":"3183453","COUNTRY_CODE":"US","TLE_LINE2":"2 48437  53.0545 158.7413 0002196  73.2259 286.8971 15.04757761 25859","SEMIMAJOR_AXIS":"6930.386","OBJECT_NAME":"STARLINK-2642","SITE":"AFETR","DECAY_DATE":null,"EPHEMERIS_TYPE":"0","APOAPSIS":"553.773","MEAN_MOTION_DOT":"0.00000965","RCS_SIZE":"MEDIUM","MEAN_ELEMENT_THEORY":"SGP4","ARG_OF_PERICENTER":"73.2259","ELEMENT_SET_NO":"999"},{"LAUNCH_DATE":"2021-05-09","MEAN_MOTION_DDOT":"0.0000000000000","TIME_SYSTEM":"UTC","CLASSIFICATION_TYPE":"U","PERIAPSIS":"545.725","REF_FRAME":"TEME","MEAN_ANOMALY":"286.4027","OBJECT_TYPE":"PAYLOAD","NORAD_CAT_ID":"48438","TLE_LINE1":"1 48438U 21040L   21297.91781575  .00002094  00000-0  15940-3 0  9995","INCLINATION":"53.0547","BSTAR":"0.00015940000000","GP_ID":"188145952","REV_AT_EPOCH":"2595","ECCENTRICITY":"0.00021350","PERIOD":"95.592","MEAN_MOTION":"15.06403306","EPOCH":"2021-10-24T22:01:39.280800","RA_OF_ASC_NODE":"149.8077","OBJECT_ID":"2021-040L","CENTER_NAME":"EARTH","ELEMENT_SET_NO":"999","ARG_OF_PERICENTER":"73.7196","RCS_SIZE":"LARGE","MEAN_ELEMENT_THEORY":"SGP4","MEAN_MOTION_DOT":"0.00002094","SEMIMAJOR_AXIS":"6925.338","OBJECT_NAME":"STARLINK-2640","COUNTRY_CODE":"US","TLE_LINE2":"2 48438  53.0547 149.8077 0002135  73.7196 286.4027 15.06403306 25951","FILE":"3183453","APOAPSIS":"548.682","EPHEMERIS_TYPE":"0","DECAY_DATE":null,"SITE":"AFETR"},{"EPOCH":"2021-10-24T23:31:53.367456","CENTER_NAME":"EARTH","RA_OF_ASC_NODE":"149.5298","OBJECT_ID":"2021-040M","NORAD_CAT_ID":"48439","OBJECT_TYPE":"PAYLOAD","MEAN_ANOMALY":"280.2886","INCLINATION":"53.0561","TLE_LINE1":"1 48439U 21040M   21297.98047879  .00001237  00000-0  10194-3 0  9999","CLASSIFICATION_TYPE":"U","LAUNCH_DATE":"2021-05-09","TIME_SYSTEM":"UTC","MEAN_MOTION_DDOT":"0.0000000000000","REF_FRAME":"TEME","PERIAPSIS":"545.914","ECCENTRICITY":"0.00018990","MEAN_MOTION":"15.06394833","PERIOD":"95.592","GP_ID":"188145507","BSTAR":"0.00010194000000","REV_AT_EPOCH":"2596","FILE":"3183453","OBJECT_NAME":"STARLINK-2583","SEMIMAJOR_AXIS":"6925.364","TLE_LINE2":"2 48439  53.0561 149.5298 0001899  79.8317 280.2886 15.06394833 25968","COUNTRY_CODE":"US","DECAY_DATE":null,"SITE":"AFETR","EPHEMERIS_TYPE":"0","APOAPSIS":"548.545","ARG_OF_PERICENTER":"79.8317","RCS_SIZE":"LARGE","MEAN_MOTION_DOT":"0.00001237","MEAN_ELEMENT_THEORY":"SGP4","ELEMENT_SET_NO":"999"},{"SEMIMAJOR_AXIS":"6925.345","OBJECT_NAME":"STARLINK-2682","COUNTRY_CODE":"US","TLE_LINE2":"2 48440  53.0558 148.9299 0002009  88.4943 271.6276 15.06401295 25985","FILE":"3183453","EPHEMERIS_TYPE":"0","APOAPSIS":"548.601","DECAY_DATE":null,"SITE":"AFETR","ELEMENT_SET_NO":"999","ARG_OF_PERICENTER":"88.4943","RCS_SIZE":"LARGE","MEAN_MOTION_DOT":"-0.00000759","MEAN_ELEMENT_THEORY":"SGP4","EPOCH":"2021-10-25T02:37:38.808480","OBJECT_ID":"2021-040N","RA_OF_ASC_NODE":"148.9299","CENTER_NAME":"EARTH","LAUNCH_DATE":"2021-05-09","MEAN_MOTION_DDOT":"0.0000000000000","TIME_SYSTEM":"UTC","CLASSIFICATION_TYPE":"U","PERIAPSIS":"545.818","REF_FRAME":"TEME","MEAN_ANOMALY":"271.6276","OBJECT_TYPE":"PAYLOAD","NORAD_CAT_ID":"48440","TLE_LINE1":"1 48440U 21040N   21298.10947695 -.00000759  00000-0 -32063-4 0  9991","INCLINATION":"53.0558","BSTAR":"-0.00003206300000","GP_ID":"188145730","REV_AT_EPOCH":"2598","ECCENTRICITY":"0.00020090","PERIOD":"95.592","MEAN_MOTION":"15.06401295"}];
